QIANFAN-9               
1 60387U 24140J   25288.84006707  .00000064  00000+0  80701-4 0  9991
2 60387  88.9746 305.3399 0016565  12.5467 347.6093 13.50973786 59519
QIANFAN-10              
1 60388U 24140K   25288.84422417  .00000054  00000+0  64659-4 0  9995
2 60388  88.9754 304.6811 0014206 350.6946   9.3939 13.50970533 59640
QIANFAN-11              
1 60389U 24140L   25288.80714720  .00000039  00000+0  41159-4 0  9996
2 60389  88.9682 305.3153 0014598  13.3720 346.7816 13.50971173 59299
QIANFAN-12              
1 60390U 24140M   25288.82767156  .00000075  00000+0  97041-4 0  9992
2 60390  88.9725 305.3314 0013722  21.8710 338.3024 13.50971571 59424
QIANFAN-13              
1 60391U 24140N   25288.79888742  .00000053  00000+0  63826-4 0  9994
2 60391  88.9737 305.4270 0013647  24.5939 335.5860 13.50971732 59447
QIANFAN-14              
1 60392U 24140P   25288.82348524  .00000064  00000+0  79754-4 0  9997
2 60392  88.9716 305.3346 0017287  22.5791 337.6117 13.50972179 59451
QIANFAN-15              
1 60393U 24140Q   25288.83170374  .00000055  00000+0  67309-4 0  9998
2 60393  88.9739 305.2765 0012630  11.6863 348.4579 13.50975955 59443
QIANFAN-16              
1 60394U 24140R   25288.81952628  .00000065  00000+0  82309-4 0  9995
2 60394  88.9743 305.3961 0015370  27.2401 332.9553 13.50971208 59350
